{
  "type": "FeatureCollection",
  "features": [
    {
      "type": "Feature",
      "properties": {
        "norad_id": 65731,
        "name": "1998-067XK",
        "group": "stations",
        "lat": 1.2440218676400758,
        "lon": 112.00334425183446,
        "alt_km": 368.49690642594123,
        "timestamp": "2025-12-17T21:39:44.513070+00:00",
        "meta_object_name": "1998-067XK",
        "meta_object_id": "1998-067XK",
        "meta_epoch": "2025-12-17T14:00:04.713696",
        "meta_mean_motion": 15.66666293,
        "meta_eccentricity": 0.00047593,
        "meta_inclination": 51.6289,
        "meta_ra_of_asc_node": 112.64,
        "meta_arg_of_pericenter": 277.2608,
        "meta_mean_anomaly": 82.7846,
        "meta_ephemeris_type": 0,
        "meta_classification_type": "U",
        "meta_norad_cat_id": 65731,
        "meta_element_set_no": 999,
        "meta_rev_at_epoch": 1390,
        "meta_bstar": 0.00079228691,
        "meta_mean_motion_dot": 0.00085225,
        "meta_mean_motion_ddot": 0,
        "tle_line1": "1 65731U 98067XK  25351.58338789  .00085225  00000+0  79229-3 0  9992",
        "tle_line2": "2 65731  51.6289 112.6400 0004759 277.2608  82.7846 15.66666293 13904"
      },
      "geometry": {
        "type": "Point",
        "coordinates": [
          112.00334425183446,
          1.2440218676400758
        ]
      }
    },
    {
      "type": "Feature",
      "properties": {
        "norad_id": 65732,
        "name": "RSP-03",
        "group": "stations",
        "lat": 23.620182534512747,
        "lon": 130.46974811621604,
        "alt_km": 357.40632123256546,
        "timestamp": "2025-12-17T21:39:44.513080+00:00",
        "meta_object_name": "RSP-03",
        "meta_object_id": "1998-067XL",
        "meta_epoch": "2025-12-17T13:53:35.595744",
        "meta_mean_motion": 15.69845633,
        "meta_eccentricity": 0.0005617,
        "meta_inclination": 51.6262,
        "meta_ra_of_asc_node": 111.8477,
        "meta_arg_of_pericenter": 283.4279,
        "meta_mean_anomaly": 76.6092,
        "meta_ephemeris_type": 0,
        "meta_classification_type": "U",
        "meta_norad_cat_id": 65732,
        "meta_element_set_no": 999,
        "meta_rev_at_epoch": 1392,
        "meta_bstar": 0.00093703449,
        "meta_mean_motion_dot": 0.00115432,
        "meta_mean_motion_ddot": 0,
        "tle_line1": "1 65732U 98067XL  25351.57888421  .00115432  00000+0  93703-3 0  9992",
        "tle_line2": "2 65732  51.6262 111.8477 0005617 283.4279  76.6092 15.69845633 13925"
      },
      "geometry": {
        "type": "Point",
        "coordinates": [
          130.46974811621604,
          23.620182534512747
        ]
      }
    },
    {
      "type": "Feature",
      "properties": {
        "norad_id": 65733,
        "name": "GHS-01",
        "group": "stations",
        "lat": 48.48059357152213,
        "lon": 172.11560386038053,
        "alt_km": 334.64709591175415,
        "timestamp": "2025-12-17T21:39:44.513089+00:00",
        "meta_object_name": "GHS-01",
        "meta_object_id": "1998-067XM",
        "meta_epoch": "2025-12-17T15:16:18.486912",
        "meta_mean_motion": 15.76951537,
        "meta_eccentricity": 0.00078677,
        "meta_inclination": 51.6275,
        "meta_ra_of_asc_node": 109.9788,
        "meta_arg_of_pericenter": 312.8661,
        "meta_mean_anomaly": 47.1678,
        "meta_ephemeris_type": 0,
        "meta_classification_type": "U",
        "meta_norad_cat_id": 65733,
        "meta_element_set_no": 999,
        "meta_rev_at_epoch": 1395,
        "meta_bstar": 0.001249396,
        "meta_mean_motion_dot": 0.00211757,
        "meta_mean_motion_ddot": 0,
        "tle_line1": "1 65733U 98067XM  25351.63632508  .00211757  00000+0  12494-2 0  9997",
        "tle_line2": "2 65733  51.6275 109.9788 0007867 312.8661  47.1678 15.76951537 13959"
      },
      "geometry": {
        "type": "Point",
        "coordinates": [
          172.11560386038053,
          48.48059357152213
        ]
      }
    },
    {
      "type": "Feature",
      "properties": {
        "norad_id": 65941,
        "name": "YOTSUBA-KULOVER",
        "group": "stations",
        "lat": 2.187078248369566,
        "lon": 115.74748931124638,
        "alt_km": 387.15948153827867,
        "timestamp": "2025-12-17T21:39:44.513100+00:00",
        "meta_object_name": "YOTSUBA-KULOVER",
        "meta_object_id": "1998-067XN",
        "meta_epoch": "2025-12-17T15:30:04.341312",
        "meta_mean_motion": 15.60110831,
        "meta_eccentricity": 0.00015491,
        "meta_inclination": 51.6281,
        "meta_ra_of_asc_node": 115.3056,
        "meta_arg_of_pericenter": 303.2507,
        "meta_mean_anomaly": 56.8338,
        "meta_ephemeris_type": 0,
        "meta_classification_type": "U",
        "meta_norad_cat_id": 65941,
        "meta_element_set_no": 999,
        "meta_rev_at_epoch": 1062,
        "meta_bstar": 0.00071229285,
        "meta_mean_motion_dot": 0.00058878,
        "meta_mean_motion_ddot": 0,
        "tle_line1": "1 65941U 98067XN  25351.64588358  .00058878  00000+0  71229-3 0  9997",
        "tle_line2": "2 65941  51.6281 115.3056 0001549 303.2507  56.8338 15.60110831 10628"
      },
      "geometry": {
        "type": "Point",
        "coordinates": [
          115.74748931124638,
          2.187078248369566
        ]
      }
    },
    {
      "type": "Feature",
      "properties": {
        "norad_id": 65942,
        "name": "BOTAN",
        "group": "stations",
        "lat": 29.448380688914945,
        "lon": 139.76257833277083,
        "alt_km": 373.4732629261325,
        "timestamp": "2025-12-17T21:39:44.513110+00:00",
        "meta_object_name": "BOTAN",
        "meta_object_id": "1998-067XP",
        "meta_epoch": "2025-12-17T15:21:45.594720",
        "meta_mean_motion": 15.63897894,
        "meta_eccentricity": 0.00028568,
        "meta_inclination": 51.6282,
        "meta_ra_of_asc_node": 114.5172,
        "meta_arg_of_pericenter": 279.3266,
        "meta_mean_anomaly": 80.7406,
        "meta_ephemeris_type": 0,
        "meta_classification_type": "U",
        "meta_norad_cat_id": 65942,
        "meta_element_set_no": 999,
        "meta_rev_at_epoch": 1063,
        "meta_bstar": 0.00098815629,
        "meta_mean_motion_dot": 0.00095351,
        "meta_mean_motion_ddot": 0,
        "tle_line1": "1 65942U 98067XP  25351.64011105  .00095351  00000+0  98816-3 0  9997",
        "tle_line2": "2 65942  51.6282 114.5172 0002856 279.3266  80.7406 15.63897894 10634"
      },
      "geometry": {
        "type": "Point",
        "coordinates": [
          139.76257833277083,
          29.448380688914945
        ]
      }
    },
    {
      "type": "Feature",
      "properties": {
        "norad_id": 65943,
        "name": "E-KAGAKU-1",
        "group": "stations",
        "lat": 1.74561248163771,
        "lon": 115.40291482934786,
        "alt_km": 388.31994104786827,
        "timestamp": "2025-12-17T21:39:44.513119+00:00",
        "meta_object_name": "E-KAGAKU-1",
        "meta_object_id": "1998-067XQ",
        "meta_epoch": "2025-12-17T15:30:12.868992",
        "meta_mean_motion": 15.6010188,
        "meta_eccentricity": 0.00013526,
        "meta_inclination": 51.6301,
        "meta_ra_of_asc_node": 115.3109,
        "meta_arg_of_pericenter": 235.3958,
        "meta_mean_anomaly": 124.6907,
        "meta_ephemeris_type": 0,
        "meta_classification_type": "U",
        "meta_norad_cat_id": 65943,
        "meta_element_set_no": 999,
        "meta_rev_at_epoch": 1062,
        "meta_bstar": 0.00073264982,
        "meta_mean_motion_dot": 0.00060567,
        "meta_mean_motion_ddot": 0,
        "tle_line1": "1 65943U 98067XQ  25351.64598228  .00060567  00000+0  73265-3 0  9996",
        "tle_line2": "2 65943  51.6301 115.3109 0001352 235.3958 124.6907 15.60101880 10629"
      },
      "geometry": {
        "type": "Point",
        "coordinates": [
          115.40291482934786,
          1.74561248163771
        ]
      }
    },
    {
      "type": "Feature",
      "properties": {
        "norad_id": 66052,
        "name": "HRC MONOBLOCK CAMERA",
        "group": "stations",
        "lat": -44.99825180758802,
        "lon": -11.845393934522457,
        "alt_km": 406.55059118984354,
        "timestamp": "2025-12-17T21:39:44.513129+00:00",
        "meta_object_name": "HRC MONOBLOCK CAMERA",
        "meta_object_id": "1998-067XR",
        "meta_epoch": "2025-12-17T12:54:03.340224",
        "meta_mean_motion": 15.5447645,
        "meta_eccentricity": 0.00027269,
        "meta_inclination": 51.6293,
        "meta_ra_of_asc_node": 117.5777,
        "meta_arg_of_pericenter": 205.53,
        "meta_mean_anomaly": 154.5557,
        "meta_ephemeris_type": 0,
        "meta_classification_type": "U",
        "meta_norad_cat_id": 66052,
        "meta_element_set_no": 999,
        "meta_rev_at_epoch": 958,
        "meta_bstar": 0.00046532549,
        "meta_mean_motion_dot": 0.00030839,
        "meta_mean_motion_ddot": 0,
        "tle_line1": "1 66052U 98067XR  25351.53753866  .00030839  00000+0  46533-3 0  9994",
        "tle_line2": "2 66052  51.6293 117.5777 0002726 205.5300 154.5557 15.54476450  9589"
      },
      "geometry": {
        "type": "Point",
        "coordinates": [
          -11.845393934522457,
          -44.99825180758802
        ]
      }
    }
  ]
}